start=new Date('2022-03-07T00:00:00.000Z').valueOf();
sats=[{"RA_OF_ASC_NODE":"3.7286","TLE_LINE1":"1 47897U 21021AP  22065.69819133  .00004495  00000-0  32037-3 0  9996","BSTAR":"0.00032037000000","OBJECT_ID":"2021-021AP","OBJECT_TYPE":"PAYLOAD","MEAN_MOTION":"15.06413129","ELEMENT_SET_NO":"999","ARG_OF_PERICENTER":"60.6088","SEMIMAJOR_AXIS":"6925.308","EPHEMERIS_TYPE":"0","MEAN_ELEMENT_THEORY":"SGP4","PERIOD":"95.591","APOAPSIS":"548.386","SITE":"AFETR","TIME_SYSTEM":"UTC","OBJECT_NAME":"STARLINK-2357","CENTER_NAME":"EARTH","MEAN_MOTION_DOT":"0.00004495","MEAN_MOTION_DDOT":"0.0000000000000","NORAD_CAT_ID":"47897","ECCENTRICITY":"0.00017510","FILE":"3347665","RCS_SIZE":"LARGE","TLE_LINE2":"2 47897  53.0526   3.7286 0001751  60.6088 299.5075 15.06413129 55050","MEAN_ANOMALY":"299.5075","PERIAPSIS":"545.961","COUNTRY_CODE":"US","GP_ID":"198071169","DECAY_DATE":null,"REV_AT_EPOCH":"5505","REF_FRAME":"TEME","EPOCH":"2022-03-06T16:45:23.730912","CLASSIFICATION_TYPE":"U","INCLINATION":"53.0526","LAUNCH_DATE":"2021-03-14"},{"SEMIMAJOR_AXIS":"6925.311","APOAPSIS":"548.209","PERIOD":"95.591","MEAN_ELEMENT_THEORY":"SGP4","EPHEMERIS_TYPE":"0","OBJECT_ID":"2021-021AQ","OBJECT_TYPE":"PAYLOAD","TLE_LINE1":"1 47898U 21021AQ  22065.55906439  .00003330  00000-0  24229-3 0  9999","BSTAR":"0.00024229000000","RA_OF_ASC_NODE":"4.3663","ARG_OF_PERICENTER":"61.8235","ELEMENT_SET_NO":"999","MEAN_MOTION":"15.06412234","NORAD_CAT_ID":"47898","MEAN_MOTION_DDOT":"0.0000000000000","TLE_LINE2":"2 47898  53.0556   4.3663 0001491  61.8235 298.2905 15.06412234 55467","RCS_SIZE":"LARGE","ECCENTRICITY":"0.00014910","FILE":"3347638","OBJECT_NAME":"STARLINK-2358","CENTER_NAME":"EARTH","TIME_SYSTEM":"UTC","SITE":"AFETR","MEAN_MOTION_DOT":"0.00003330","GP_ID":"198066681","COUNTRY_CODE":"US","PERIAPSIS":"546.143","MEAN_ANOMALY":"298.2905","EPOCH":"2022-03-06T13:25:03.163296","INCLINATION":"53.0556","LAUNCH_DATE":"2021-03-14","CLASSIFICATION_TYPE":"U","DECAY_DATE":null,"REF_FRAME":"TEME","REV_AT_EPOCH":"5546"},{"CENTER_NAME":"EARTH","OBJECT_NAME":"STARLINK-2359","TIME_SYSTEM":"UTC","SITE":"AFETR","MEAN_MOTION_DOT":"0.00004139","NORAD_CAT_ID":"47899","MEAN_MOTION_DDOT":"0.0000000000000","TLE_LINE2":"2 47899  53.0538 354.6803 0001810  63.8113 296.3062 15.06407054 55655","RCS_SIZE":"LARGE","FILE":"3347638","ECCENTRICITY":"0.00018100","OBJECT_TYPE":"PAYLOAD","OBJECT_ID":"2021-021AR","BSTAR":"0.00029655000000","TLE_LINE1":"1 47899U 21021AR  22065.48995821  .00004139  00000-0  29655-3 0  9991","RA_OF_ASC_NODE":"354.6803","ARG_OF_PERICENTER":"63.8113","ELEMENT_SET_NO":"999","MEAN_MOTION":"15.06407054","SEMIMAJOR_AXIS":"6925.327","APOAPSIS":"548.445","MEAN_ELEMENT_THEORY":"SGP4","PERIOD":"95.592","EPHEMERIS_TYPE":"0","DECAY_DATE":null,"REF_FRAME":"TEME","REV_AT_EPOCH":"5565","EPOCH":"2022-03-06T11:45:32.389344","INCLINATION":"53.0538","LAUNCH_DATE":"2021-03-14","CLASSIFICATION_TYPE":"U","COUNTRY_CODE":"US","PERIAPSIS":"545.938","MEAN_ANOMALY":"296.3062","GP_ID":"198066931"},{"DECAY_DATE":null,"REV_AT_EPOCH":"5507","REF_FRAME":"TEME","EPOCH":"2022-03-06T20:17:42.105408","INCLINATION":"53.0559","LAUNCH_DATE":"2021-03-14","CLASSIFICATION_TYPE":"U","COUNTRY_CODE":"US","MEAN_ANOMALY":"301.2619","PERIAPSIS":"545.941","GP_ID":"198081001","SITE":"AFETR","TIME_SYSTEM":"UTC","OBJECT_NAME":"STARLINK-2360","CENTER_NAME":"EARTH","MEAN_MOTION_DOT":"0.00002175","NORAD_CAT_ID":"47900","MEAN_MOTION_DDOT":"0.0000000000000","RCS_SIZE":"LARGE","TLE_LINE2":"2 47900  53.0559   3.0780 0001767  58.8544 301.2619 15.06415870 55078","FILE":"3348053","ECCENTRICITY":"0.00017670","TLE_LINE1":"1 47900U 21021AS  22065.84562622  .00002175  00000-0  16481-3 0  9994","BSTAR":"0.00016481000000","OBJECT_TYPE":"PAYLOAD","OBJECT_ID":"2021-021AS","RA_OF_ASC_NODE":"3.0780","ARG_OF_PERICENTER":"58.8544","MEAN_MOTION":"15.06415870","ELEMENT_SET_NO":"999","SEMIMAJOR_AXIS":"6925.300","APOAPSIS":"548.389","EPHEMERIS_TYPE":"0","MEAN_ELEMENT_THEORY":"SGP4","PERIOD":"95.591"},{"MEAN_ANOMALY":"296.5952","PERIAPSIS":"546.021","COUNTRY_CODE":"US","GP_ID":"198071137","DECAY_DATE":null,"REV_AT_EPOCH":"5520","REF_FRAME":"TEME","EPOCH":"2022-03-06T19:15:20.002176","CLASSIFICATION_TYPE":"U","INCLINATION":"53.0559","LAUNCH_DATE":"2021-03-14","RA_OF_ASC_NODE":"353.2607","BSTAR":"0.00008697200000","TLE_LINE1":"1 47901U 21021AT  22065.80231484  .00001014  00000-0  86972-4 0  9994","OBJECT_TYPE":"PAYLOAD","OBJECT_ID":"2021-021AT","MEAN_MOTION":"15.06409654","ELEMENT_SET_NO":"999","ARG_OF_PERICENTER":"63.5209","SEMIMAJOR_AXIS":"6925.319","EPHEMERIS_TYPE":"0","MEAN_ELEMENT_THEORY":"SGP4","PERIOD":"95.592","APOAPSIS":"548.347","SITE":"AFETR","TIME_SYSTEM":"UTC","CENTER_NAME":"EARTH","OBJECT_NAME":"STARLINK-2361","MEAN_MOTION_DOT":"0.00001014","MEAN_MOTION_DDOT":"0.0000000000000","NORAD_CAT_ID":"47901","ECCENTRICITY":"0.00016790","FILE":"3347670","RCS_SIZE":"LARGE","TLE_LINE2":"2 47901  53.0559 353.2607 0001679  63.5209 296.5952 15.06409654 55204"},{"DECAY_DATE":null,"REV_AT_EPOCH":"5543","REF_FRAME":"TEME","EPOCH":"2022-03-06T06:19:06.622176","CLASSIFICATION_TYPE":"U","INCLINATION":"53.0563","LAUNCH_DATE":"2021-03-14","MEAN_ANOMALY":"293.2573","PERIAPSIS":"545.900","COUNTRY_CODE":"US","GP_ID":"198066181","TIME_SYSTEM":"UTC","SITE":"AFETR","OBJECT_NAME":"STARLINK-2362","CENTER_NAME":"EARTH","MEAN_MOTION_DOT":"0.00003048","MEAN_MOTION_DDOT":"0.0000000000000","NORAD_CAT_ID":"47902","FILE":"3347638","ECCENTRICITY":"0.00018050","RCS_SIZE":"LARGE","TLE_LINE2":"2 47902  53.0563  15.6721 0001805  66.8606 293.2573 15.06420792 55438","RA_OF_ASC_NODE":"15.6721","BSTAR":"0.00022330000000","TLE_LINE1":"1 47902U 21021AU  22065.26327109  .00003048  00000-0  22330-3 0  9991","OBJECT_TYPE":"PAYLOAD","OBJECT_ID":"2021-021AU","MEAN_MOTION":"15.06420792","ELEMENT_SET_NO":"999","ARG_OF_PERICENTER":"66.8606","SEMIMAJOR_AXIS":"6925.285","EPHEMERIS_TYPE":"0","PERIOD":"95.591","MEAN_ELEMENT_THEORY":"SGP4","APOAPSIS":"548.400"},{"TIME_SYSTEM":"UTC","SITE":"AFETR","CENTER_NAME":"EARTH","OBJECT_NAME":"STARLINK-2363","MEAN_MOTION_DOT":"0.00000669","NORAD_CAT_ID":"47903","MEAN_MOTION_DDOT":"0.0000000000000","RCS_SIZE":"LARGE","TLE_LINE2":"2 47903  53.0568 355.8784 0002044  48.2933 311.8230 15.06410178 55136","FILE":"3346953","ECCENTRICITY":"0.00020440","TLE_LINE1":"1 47903U 21021AV  22065.22088386  .00000669  00000-0  63837-4 0  9993","BSTAR":"0.00006383700000","OBJECT_TYPE":"PAYLOAD","OBJECT_ID":"2021-021AV","RA_OF_ASC_NODE":"355.8784","ARG_OF_PERICENTER":"48.2933","MEAN_MOTION":"15.06410178","ELEMENT_SET_NO":"999","SEMIMAJOR_AXIS":"6925.317","APOAPSIS":"548.598","EPHEMERIS_TYPE":"0","PERIOD":"95.591","MEAN_ELEMENT_THEORY":"SGP4","DECAY_DATE":null,"REV_AT_EPOCH":"5513","REF_FRAME":"TEME","EPOCH":"2022-03-06T05:18:04.365504","INCLINATION":"53.0568","LAUNCH_DATE":"2021-03-14","CLASSIFICATION_TYPE":"U","COUNTRY_CODE":"US","MEAN_ANOMALY":"311.8230","PERIAPSIS":"545.767","GP_ID":"198030913"},{"COUNTRY_CODE":"US","PERIAPSIS":"546.036","MEAN_ANOMALY":"297.4973","GP_ID":"198071146","DECAY_DATE":null,"REF_FRAME":"TEME","REV_AT_EPOCH":"5519","EPOCH":"2022-03-06T14:46:00.249024","LAUNCH_DATE":"2021-03-14","INCLINATION":"53.0559","CLASSIFICATION_TYPE":"U","OBJECT_ID":"2021-021AW","OBJECT_TYPE":"PAYLOAD","TLE_LINE1":"1 47904U 21021AW  22065.61528066  .00001302  00000-0  10630-3 0  9998","BSTAR":"0.00010630000000","RA_OF_ASC_NODE":"354.1047","ARG_OF_PERICENTER":"62.6185","ELEMENT_SET_NO":"999","MEAN_MOTION":"15.06409062","SEMIMAJOR_AXIS":"6925.321","APOAPSIS":"548.335","MEAN_ELEMENT_THEORY":"SGP4","PERIOD":"95.592","EPHEMERIS_TYPE":"0","CENTER_NAME":"EARTH","OBJECT_NAME":"STARLINK-2364","TIME_SYSTEM":"UTC","SITE":"AFETR","MEAN_MOTION_DOT":"0.00001302","NORAD_CAT_ID":"47904","MEAN_MOTION_DDOT":"0.0000000000000","TLE_LINE2":"2 47904  53.0559 354.1047 0001660  62.6185 297.4973 15.06409062 55192","RCS_SIZE":"LARGE","FILE":"3347671","ECCENTRICITY":"0.00016600"},{"REV_AT_EPOCH":"5571","REF_FRAME":"TEME","DECAY_DATE":null,"INCLINATION":"53.0551","LAUNCH_DATE":"2021-03-14","CLASSIFICATION_TYPE":"U","EPOCH":"2022-03-06T05:07:28.209216","COUNTRY_CODE":"US","MEAN_ANOMALY":"297.2757","PERIAPSIS":"546.093","GP_ID":"198067932","MEAN_MOTION_DOT":"0.00004236","SITE":"AFETR","TIME_SYSTEM":"UTC","OBJECT_NAME":"STARLINK-2365","CENTER_NAME":"EARTH","RCS_SIZE":"LARGE","TLE_LINE2":"2 47905  53.0551 355.9175 0001578  62.8393 297.2757 15.06409159 55710","ECCENTRICITY":"0.00015780","FILE":"3347638","NORAD_CAT_ID":"47905","MEAN_MOTION_DDOT":"0.0000000000000","ARG_OF_PERICENTER":"62.8393","MEAN_MOTION":"15.06409159","ELEMENT_SET_NO":"999","BSTAR":"0.00030301000000","TLE_LINE1":"1 47905U 21021AX  22065.21352094  .00004236  00000-0  30301-3 0  9997","OBJECT_TYPE":"PAYLOAD","OBJECT_ID":"2021-021AX","RA_OF_ASC_NODE":"355.9175","APOAPSIS":"548.278","EPHEMERIS_TYPE":"0","PERIOD":"95.592","MEAN_ELEMENT_THEORY":"SGP4","SEMIMAJOR_AXIS":"6925.320"},{"SITE":"AFETR","TIME_SYSTEM":"UTC","CENTER_NAME":"EARTH","OBJECT_NAME":"STARLINK-2366","MEAN_MOTION_DOT":"0.00003474","NORAD_CAT_ID":"47906","MEAN_MOTION_DDOT":"0.0000000000000","RCS_SIZE":"LARGE","TLE_LINE2":"2 47906  53.0441 246.1547 0002760  19.8673 340.2454 15.76732216 56703","ECCENTRICITY":"0.00027600","FILE":"3347809","TLE_LINE1":"1 47906U 21021AY  22065.78367687  .00003474  00000-0  25227-4 0  9999","BSTAR":"0.00002522700000","OBJECT_ID":"2021-021AY","OBJECT_TYPE":"PAYLOAD","RA_OF_ASC_NODE":"246.1547","ARG_OF_PERICENTER":"19.8673","MEAN_MOTION":"15.76732216","ELEMENT_SET_NO":"999","SEMIMAJOR_AXIS":"6717.843","APOAPSIS":"341.563","EPHEMERIS_TYPE":"0","PERIOD":"91.328","MEAN_ELEMENT_THEORY":"SGP4","DECAY_DATE":null,"REV_AT_EPOCH":"5670","REF_FRAME":"TEME","EPOCH":"2022-03-06T18:48:29.681568","LAUNCH_DATE":"2021-03-14","INCLINATION":"53.0441","CLASSIFICATION_TYPE":"U","COUNTRY_CODE":"US","MEAN_ANOMALY":"340.2454","PERIAPSIS":"337.854","GP_ID":"198074397"}];
